NORAD_CAT_ID,OBJECT_NAME,OBJECT_TYPE,EPOCH,MEAN_MOTION,ECCENTRICITY,INCLINATION,RA_OF_ASC_NODE,ARG_OF_PERICENTER,MEAN_ANOMALY,BSTAR,MEAN_MOTION_DOT,MEAN_MOTION_DDOT,TLE_LINE0,TLE_LINE1,TLE_LINE2,SEMIMAJOR_AXIS,PERIOD,APOGEE,PERIGEE,DECAYED
51782.0,STARLINK-3616,PAYLOAD,2023-03-18 14:26:48,15.08856652,6.84e-05,53.2175,189.2469,107.1898,252.9169,0.00057032,8.805e-05,0.0,0 STARLINK-3616,1 51782U 22017Q   23077.60194750  .00008805  00000-0  57032-3 0  9997,2 51782  53.2175 189.2469 0000684 107.1898 252.9169 15.08856652 59801,6917.829,95.437,540.168,539.221,0.0
51782.0,STARLINK-3616,PAYLOAD,2023-03-18 19:12:57,15.08879541,6.96e-05,53.2176,188.3545,103.0064,257.1006,0.0013209,0.00020819,0.0,0 STARLINK-3616,1 51782U 22017Q   23077.80066615  .00020819  00000-0  13209-2 0  9993,2 51782  53.2176 188.3545 0000696 103.0064 257.1006 15.08879541 58101,6917.76,95.435,540.106,539.143,0.0
51782.0,STARLINK-3616,PAYLOAD,2023-03-19 06:20:39,15.08864632,0.0001876,53.218,186.2743,83.9359,276.1847,0.00038416,5.835e-05,0.0,0 STARLINK-3616,1 51782U 22017Q   23078.26434754  .00005835  00000-0  38416-3 0  9996,2 51782  53.2180 186.2743 0001876  83.9359 276.1847 15.08864632 59905,6917.805,95.436,540.968,538.372,0.0
51782.0,STARLINK-3616,PAYLOAD,2023-03-19 14:17:35,15.08857026,0.0001015,53.2179,184.7874,102.0738,258.0368,0.0014607,0.00023046,0.0,0 STARLINK-3616,1 51782U 22017Q   23078.59554564  .00023046  00000-0  14607-2 0  9993,2 51782  53.2179 184.7874 0001015 102.0738 258.0368 15.08857026 58220,6917.828,95.436,540.396,538.991,0.0
51782.0,STARLINK-3616,PAYLOAD,2023-03-19 19:03:44,15.08866947,0.0001078,53.2178,183.8946,94.9029,265.2087,0.0017593,0.00027843,0.0,0 STARLINK-3616,1 51782U 22017Q   23078.79426300  .00027843  00000-0  17593-2 0  9997,2 51782  53.2178 183.8946 0001078  94.9029 265.2087 15.08866947 58253,6917.798,95.436,540.409,538.917,0.0
51782.0,STARLINK-3616,PAYLOAD,2023-03-19 23:49:54,15.0883601,7.76e-05,53.2184,183.0028,83.4484,276.6597,6.082e-05,6.8e-06,0.0,0 STARLINK-3616,1 51782U 22017Q   23078.99298658  .00000680  00000-0  60820-4 0  9995,2 51782  53.2184 183.0028 0000776  83.4484 276.6597 15.08836010 60012,6917.893,95.438,540.294,539.221,0.0
51782.0,STARLINK-3616,PAYLOAD,2023-03-20 12:32:59,15.0882668,0.0001305,53.2178,180.6247,76.5723,283.5414,0.00071421,0.00011093,0.0,0 STARLINK-3616,1 51782U 22017Q   23079.52291486  .00011093  00000-0  71421-3 0  9995,2 51782  53.2178 180.6247 0001305  76.5723 283.5414 15.08826680 58361,6917.921,95.438,540.689,538.883,0.0
51782.0,STARLINK-3616,PAYLOAD,2023-03-20 17:19:09,15.08840525,0.0001281,53.2178,179.733,72.112,288.0012,0.0015585,0.00024603,0.0,0 STARLINK-3616,1 51782U 22017Q   23079.72163450  .00024603  00000-0  15585-2 0  9995,2 51782  53.2178 179.7330 0001281  72.1120 288.0012 15.08840525 58390,6917.879,95.438,540.63,538.858,0.0
51782.0,STARLINK-3616,PAYLOAD,2023-03-21 12:23:46,15.08852607,0.0001516,53.2176,176.1635,61.5681,298.5464,0.001037,0.0001626,0.0,0 STARLINK-3616,1 51782U 22017Q   23080.51651430  .00016260  00000-0  10370-2 0  9991,2 51782  53.2176 176.1635 0001516  61.5681 298.5464 15.08852607 58517,6917.842,95.437,540.756,538.658,0.0
51782.0,STARLINK-3616,PAYLOAD,2023-03-21 18:45:19,15.08855073,0.0001492,53.2182,174.9744,63.1524,296.962,0.00067266,0.00010438,0.0,0 STARLINK-3616,1 51782U 22017Q   23080.78147184  .00010438  00000-0  67266-3 0  9994,2 51782  53.2182 174.9744 0001492  63.1524 296.9620 15.08855073 60281,6917.834,95.437,540.731,538.667,0.0
51782.0,STARLINK-3616,PAYLOAD,2023-03-22 13:49:56,15.08855539,0.0001036,53.2178,171.4059,78.1588,281.952,0.00037764,5.73e-05,0.0,0 STARLINK-3616,1 51782U 22017Q   23081.57634798  .00005730  00000-0  37764-3 0  9993,2 51782  53.2178 171.4059 0001036  78.1588 281.9520 15.08855539 60401,6917.833,95.437,540.415,538.981,0.0
51782.0,STARLINK-3616,PAYLOAD,2023-03-23 12:05:20,15.08846358,0.0001769,53.2174,167.2467,43.62,316.4932,0.00020113,2.915e-05,0.0,0 STARLINK-3616,1 51782U 22017Q   23082.50371434  .00002915  00000-0  20113-3 0  9994,2 51782  53.2174 167.2467 0001769  43.6200 316.4932 15.08846358 60549,6917.861,95.437,540.95,538.502,0.0
51782.0,STARLINK-3616,PAYLOAD,2023-03-24 05:34:34,15.08881918,7.25e-05,53.2173,163.9721,77.8598,282.2476,0.0010658,0.00016734,0.0,0 STARLINK-3616,1 51782U 22017Q   23083.23233860  .00016734  00000-0  10658-2 0  9991,2 51782  53.2173 163.9721 0000725  77.8598 282.2476 15.08881918 60650,6917.752,95.435,540.119,539.116,0.0
51782.0,STARLINK-3616,PAYLOAD,2023-03-24 11:56:05,15.08896223,0.0001502,53.2185,162.7849,112.3244,247.7908,0.0013316,0.00021001,0.0,0 STARLINK-3616,1 51782U 22017Q   23083.49728786  .00021001  00000-0  13316-2 0  9992,2 51782  53.2185 162.7849 0001502 112.3244 247.7908 15.08896223 60693,6917.709,95.434,540.613,538.535,0.0
51782.0,STARLINK-3616,PAYLOAD,2023-03-25 11:46:54,15.08814279,0.0001332,53.2161,158.3201,135.3889,224.721,-0.00076966,-0.00012507,0.0,0 STARLINK-3616,1 51782U 22017Q   23084.49090444 -.00012507  00000-0 -76966-3 0  9990,2 51782  53.2161 158.3201 0001332 135.3889 224.7210 15.08814279 60840,6917.959,95.439,540.745,538.903,0.0
51782.0,STARLINK-3616,PAYLOAD,2023-03-25 13:22:16,15.08838532,0.0002092,53.2178,158.0248,144.7268,215.3863,-0.00020643,-3.572e-05,0.0,0 STARLINK-3616,1 51782U 22017Q   23084.55713928 -.00003572  00000-0 -20643-3 0  9999,2 51782  53.2178 158.0248 0002092 144.7268 215.3863 15.08838532 60854,6917.885,95.438,541.197,538.303,0.0
51782.0,STARLINK-3616,PAYLOAD,2023-03-26 05:16:09,15.08822022,0.0001181,53.2173,155.0526,123.6102,236.5003,-0.00033647,-5.636e-05,0.0,0 STARLINK-3616,1 51782U 22017Q   23085.21955463 -.00005636  00000-0 -33647-3 0  9996,2 51782  53.2173 155.0526 0001181 123.6102 236.5003 15.08822022 60955,6917.935,95.439,540.617,538.983,0.0
51782.0,STARLINK-3616,PAYLOAD,2023-03-26 13:13:05,15.08847194,0.0001156,53.2167,153.5653,87.2817,272.8307,0.0018131,0.00028691,0.0,0 STARLINK-3616,1 51782U 22017Q   23085.55076242  .00028691  00000-0  18131-2 0  9996,2 51782  53.2167 153.5653 0001156  87.2817 272.8307 15.08847194 61006,6917.858,95.437,540.523,538.924,0.0
51782.0,STARLINK-3616,PAYLOAD,2023-03-26 21:10:01,15.08843778,0.0001393,53.2175,152.0799,106.8623,253.2522,0.00057429,8.865e-05,0.0,0 STARLINK-3616,1 51782U 22017Q   23085.88196375  .00008865  00000-0  57429-3 0  9997,2 51782  53.2175 152.0799 0001393 106.8623 253.2522 15.08843778 59324,6917.869,95.437,540.698,538.77,0.0
51782.0,STARLINK-3616,PAYLOAD,2023-03-27 13:03:53,15.08845491,0.0001481,53.2173,149.1065,97.9255,262.1905,0.0009185,0.00014362,0.0,0 STARLINK-3616,1 51782U 22017Q   23086.54436611  .00014362  00000-0  91850-3 0  9996,2 51782  53.2173 149.1065 0001481  97.9255 262.1905 15.08845491 61156,6917.864,95.437,540.753,538.704,0.0
51782.0,STARLINK-3616,PAYLOAD,2023-03-28 06:33:07,15.08853068,0.0001465,53.2168,145.8347,94.5865,265.5294,0.00053266,8.202e-05,0.0,0 STARLINK-3616,1 51782U 22017Q   23087.27300245  .00008202  00000-0  53266-3 0  9995,2 51782  53.2168 145.8347 0001465  94.5865 265.5294 15.08853068 61267,6917.84,95.437,540.719,538.692,0.0
51782.0,STARLINK-3616,PAYLOAD,2023-03-28 12:54:39,15.08859698,0.0001445,53.2168,144.6457,96.3492,263.7664,0.00061625,9.538e-05,0.0,0 STARLINK-3616,1 51782U 22017Q   23087.53795908  .00009538  00000-0  61625-3 0  9999,2 51782  53.2168 144.6457 0001445  96.3492 263.7664 15.08859698 59577,6917.82,95.436,540.685,538.686,0.0
51782.0,STARLINK-3616,PAYLOAD,2023-03-29 03:13:08,15.08847332,0.0001597,53.2168,141.9695,81.3859,278.7314,0.00024305,3.583e-05,0.0,0 STARLINK-3616,1 51782U 22017Q   23088.13412241  .00003583  00000-0  24305-3 0  9990,2 51782  53.2168 141.9695 0001597  81.3859 278.7314 15.08847332 61393,6917.858,95.437,540.828,538.618,0.0
51782.0,STARLINK-3616,PAYLOAD,2023-03-29 11:10:03,15.08846974,0.0001305,53.2166,140.4818,82.7618,277.3523,0.00030196,4.522e-05,0.0,0 STARLINK-3616,1 51782U 22017Q   23088.46532205  .00004522  00000-0  30196-3 0  9998,2 51782  53.2166 140.4818 0001305  82.7618 277.3523 15.08846974 59718,6917.859,95.437,540.627,538.821,0.0
51782.0,STARLINK-3616,PAYLOAD,2023-03-29 20:42:22,15.08842538,0.0001484,53.2166,138.6983,73.6164,286.4991,0.00025926,3.841e-05,0.0,0 STARLINK-3616,1 51782U 22017Q   23088.86276448  .00003841  00000-0  25926-3 0  9994,2 51782  53.2166 138.6983 0001484  73.6164 286.4991 15.08842538 61505,6917.873,95.437,540.764,538.711,0.0
51782.0,STARLINK-3616,PAYLOAD,2023-03-30 20:33:09,15.08840013,0.0001187,53.2173,134.2383,72.2006,287.9115,0.00024215,3.568e-05,0.0,0 STARLINK-3616,1 51782U 22017Q   23089.85636484  .00003568  00000-0  24215-3 0  9990,2 51782  53.2173 134.2383 0001187  72.2006 287.9115 15.08840013 61655,6917.88,95.438,540.567,538.924,0.0
51782.0,STARLINK-3616,PAYLOAD,2023-03-31 14:02:23,15.08859429,0.0001327,53.2179,130.9652,86.8411,273.2733,0.00055393,8.543e-05,0.0,0 STARLINK-3616,1 51782U 22017Q   23090.58499849  .00008543  00000-0  55393-3 0  9993,2 51782  53.2179 130.9652 0001327  86.8411 273.2733 15.08859429 61767,6917.821,95.436,540.604,538.768,0.0
51782.0,STARLINK-3616,PAYLOAD,2023-04-01 09:07:01,15.08842476,0.0001373,53.2179,127.3956,101.1706,258.9441,0.00028087,4.185e-05,0.0,0 STARLINK-3616,1 51782U 22017Q   23091.37988413  .00004185  00000-0  28087-3 0  9999,2 51782  53.2179 127.3956 0001373 101.1706 258.9441 15.08842476 60155,6917.873,95.437,540.688,538.788,0.0
51782.0,STARLINK-3616,PAYLOAD,2023-04-01 13:53:11,15.08842954,0.0001308,53.2178,126.5041,95.6791,264.435,0.00058413,9.021e-05,0.0,0 STARLINK-3616,1 51782U 22017Q   23091.57860489  .00009021  00000-0  58413-3 0  9993,2 51782  53.2178 126.5041 0001308  95.6791 264.4350 15.08842954 61916,6917.871,95.437,540.641,538.832,0.0
51782.0,STARLINK-3616,PAYLOAD,2023-04-02 07:22:26,15.0884113,0.0001894,53.2178,123.2273,121.7996,238.3181,0.00029955,4.483e-05,0.0,0 STARLINK-3616,1 51782U 22017Q   23092.30724642  .00004483  00000-0  29955-3 0  9991,2 51782  53.2178 123.2273 0001894 121.7996 238.3181 15.08841130 62025,6917.877,95.437,541.052,538.432,0.0
